#dP2022  1  7  0  0  0.00000000      96 __u+U ITR00 FIT  IAC
## 2191 432000.00000000   900.00000000 59586 0.0000000000000
+  124   C01C02C03C04C05C06C07C08C09C10C11C12C13C14C16C19C20
+        C21C22C23C24C25C26C27C28C29C30C32C33C34C35C36C37C38
+        C39C40C41C42C43C44C45C46C60E01E02E03E04E05E07E08E09
+        E11E12E13E14E15E18E19E21E24E25E26E27E30E31E33E36G01
+        G02G03G04G05G06G07G08G09G10G12G13G14G15G16G17G18G19
+        G20G21G22G23G24G25G26G27G28G29G30G31G32J01J02J07R01
+        R02R03R04R05R06R07R08R09R10R11R12R13R14R15R17R18R19
+        R20R21R22R23R24  0  0  0  0  0  0  0  0  0  0  0  0
++        13 12 13  0 12  9  9  9  8  9  8  8  9  8  9  7  7
++         7  7  7  7  7  7  7  7  7  7  7  7  7  7  7  7  8
++         8  8  7  7  7  7  7  7 12  4  4  4  4  4  5  4  4
++         5  5  4  4  4  4  4  4  4  4  5  4  4  4  5  4  3
++         4  3  3  4  4  4  4  4  3  4  4  3  4  4  4  4  4
++         4  3  4  3  3  4  4  4  4  4  3  4  3  9  8 14  7
++         6  6  6  5 13  5  5  6 13  7  5  7  5  6  6  6  7
++         7  5  7 13  6  0  0  0  0  0  0  0  0  0  0  0  0
%c M  cc GPS ccc cccc cccc cccc cccc ccccc ccccc ccccc ccccc
%c cc cc ccc ccc cccc cccc cccc cccc ccccc ccccc ccccc ccccc
%f  0.0000000  0.000000000  0.00000000000  0.000000000000000
%f  0.0000000  0.000000000  0.00000000000  0.000000000000000
%i    0    0    0    0      0      0      0      0         0
%i    0    0    0    0      0      0      0      0         0
/* INFORMATION & ANALYSIS CENTER (IAC)            RAPID DATA
/* S/V CLOCKS ARE ALIGNED TO GNSS TIME                      
/* G:C1WC2W R:C1PC2P E:C1XC5X C:C2IC6I J:C1CC2S             
/* PCV:IGS14_2186 OL/AL:FES2004  NONE     YN ORB:CoN CLK:CoN
*  2022 01 07 11  0  0.00000000
PC01 -34363.165790  24476.724595    -47.251230   -262.953959
PC02   4368.238425  41871.784901  -1181.923726    734.296791
PC03 -14735.125024  39471.207261   -840.260858    528.144748
PC04      0.000000      0.000000      0.000000 999999.999999
PC05  21882.207635  35981.016697  -1460.165097    357.171407
PC06  -5834.984877  39846.619207 -12114.160574   -161.866602
PC07  -5556.761070  26373.671188  32433.286796     29.180527
PC08 -19119.291013  30050.635383 -22665.336932     40.252530
PC09  -1535.193377  41664.356341  -3923.975945   -414.140299
PC10   2134.711617  28210.404931  31608.976180    139.101804
PC11  15268.092909   -630.284589 -23278.554178   -285.519455
PC12  12146.551723  18872.639387 -16549.721684   -432.424864
PC13 -13351.927299  30598.982498 -25794.737616   -154.260179
PC14  25445.467292   3591.967020  10959.670733    475.726221
PC16  -7801.784071  38176.503603 -15682.738941     48.513556
PC19 -20746.007355   4070.714257 -18188.014299    912.930121
PC20 -25985.774496  -9461.709811  -3643.327599   -802.241787
PC21  15926.627557  18165.592077 -13966.502109   -959.321661
PC22  -3278.542207  15797.506463 -22772.625072   -961.122100
PC23  13260.272221 -20624.377536 -13316.340243   -966.364456
PC24  20556.712397   2238.373154  18709.101655   -946.655153
PC25  23710.267550 -14367.058510   3059.291102   -798.432040
PC26   6460.291273  15191.506733  22489.562085    796.927041
PC27  -7903.701072 -25204.050672   9012.588727    657.511951
PC28   4119.690068 -26272.316413  -8447.937165     18.003511
PC29 -13441.404582  12301.706278  21132.800047    498.126949
PC30 -15654.168716  -9601.986676  21016.839802    490.597854
PC32 -15978.400415 -18070.983351  14041.666489   -957.402033
PC33  20805.354778  -4149.417698  18136.463050   -955.969517
PC34  15808.356157   8544.656536 -21349.327787   -497.281832
PC35  -3650.324670  26134.274685   9022.340065     81.847827
PC36 -24161.263146  13526.756390  -3496.657435   -857.650714
PC37  -5078.292491 -15914.186835 -22340.484810   -933.881072
PC38 -24446.707110  31043.327546 -14939.374618    202.295980
PC39  -8503.368610  36105.493188 -19920.345955     34.575262
PC40 -10901.196304  19837.518508  35575.660931    233.444780
PC41   3714.579011 -15684.173351  22828.193722   -921.104833
PC42  25910.667289  10007.119210   2791.436334   -929.726068
PC43  13819.260355 -11610.640226 -21292.552754   -949.547117
PC44   8730.151222  24978.240209  -8818.242700    523.696147
PC45 -13122.526930  20599.553050  13521.813635    647.418479
PC46 -21306.224398   -950.924860 -18022.697689   -101.730376
PC60   7287.523611  41529.790638    197.808910     -0.288920
PE01 -28631.574927   5952.986838   4632.073684   -554.506140
PE02  28563.532374  -6051.562516  -4785.633335    272.002664
PE03  18412.918044  -2321.592542  23053.610960   -514.517932
PE04  -4520.981712  19749.182917 -21579.199968   -937.516845
PE05  21743.943412  16791.033631  11012.377546   -220.584962
PE07 -12376.709928 -25881.613923   7279.839934   -625.831241
PE08   3977.769336 -19965.260656  21480.585940   5876.092294
PE09  12672.428609  25794.290426  -7111.831044   5403.410348
PE11   1063.914148  24451.852466 -16639.687114   4730.345846
PE12 -13033.178461  26500.628229   1889.537751   4822.179072
PE13   -606.975258 -24770.820914  16205.987780    425.414258
PE14 -16393.430737  -3516.757505  16339.078817  -1701.728698
PE15  13008.048687 -26514.855013  -1993.352758    770.740328
PE18  22572.513874   4206.082110 -23047.919039  -1872.943360
PE19 -19434.663139   -317.345735 -22327.522086    471.507675
PE21 -25942.653740  -6157.613326 -12870.148301   -709.814153
PE24   6745.516353  15822.259159  24072.729827  -1322.041877
PE25  25784.377074   6317.965559  13082.435997   -559.459574
PE26 -14441.881616  -7500.533941  24735.533702   -659.713536
PE27  -8206.904401 -15447.761837 -23879.362851   -204.138423
PE30  15413.895291 -15264.685917 -20137.559503   -172.416710
PE31 -14242.196275  15583.451911  20759.370933   -490.420992
PE33 -18912.787257  12601.092740  18973.485636   -460.637051
PE36  13785.576919   8479.786190 -24773.295439   -314.678417
PG01 -13756.584197  22482.794238  -1115.096480    463.579162
PG02  17938.497651  -8817.366034 -16882.609593   -647.986192
PG03 -12346.200109  12933.081835 -19709.690789    -69.015004
PG04  -4364.545137  19345.528828 -17627.716903   -196.024821
PG05  24621.650342  -5724.566089   8233.433292    -67.066785
PG06  12042.526609   8326.258358 -22089.426701    164.021386
PG07  -1453.120471  21944.105375  14907.178729    299.344315
PG08 -12010.487808   9366.994893  21719.903415    -51.161132
PG09   5904.203843  24248.252376  -9114.914269   -358.621810
PG10 -17798.367415 -11728.516462  16166.742038   -287.527809
PG12  15318.660030 -11192.113619 -18790.251928   -152.245596
PG13  15447.687378   -700.264517  21458.479494    241.535293
PG14  16835.380986  12820.009732  16085.506384    -67.151126
PG15  11032.992441 -11410.016967  20866.735833    -93.357194
PG16 -26218.302361    206.140734   5328.004692   -452.121034
PG17  13172.497828  22572.460832  -4174.421704    558.110960
PG18   1918.401862 -21677.584052  15153.047948    265.427155
PG19  16015.510801  17250.144582 -12736.434216    102.395013
PG20  26288.907355  -1229.130118  -2334.770272    517.283987
PG21 -17111.609469  17744.675547   9710.289284    155.583876
PG22 -19911.555643  11075.086630 -13297.724979   -423.167351
PG23  -5935.578079 -14751.262120  21274.388447     13.659491
PG24  14600.790487 -21547.857649   3732.314572    277.018272
PG25   2163.644390 -15293.151354 -21872.212691    267.338111
PG26 -24992.518035  -5455.888787  -7785.744459    172.187195
PG27 -16863.313287  -2471.107484  20285.218940     53.959923
PG28  22210.017100  10301.048337  10537.610987    427.141002
PG29  -1457.188300 -23622.518175 -12040.583795   -464.203091
PG30   6740.952780  16306.017625  19851.690084   -505.030175
PG31 -14373.621387  -6067.053863 -21648.194615   -158.789976
PG32 -16538.347335 -19344.974520  -7809.651638    -46.733142
PJ01 -25106.181434  15234.555923 -25701.267520    306.065983
PJ02 -31211.662084  24427.766668  19262.583308     -0.672548
PJ07 -25375.974103  33677.995167    -56.427877     -0.002920
PR01 -12242.862366   4359.346033 -21950.355254      7.244617
PR02   6165.873746  15690.857359 -19077.903182    505.762706
PR03  18961.358386  16397.227901  -4508.135732     49.501645
PR04  20812.843788   8054.958020  12364.431757    122.446235
PR05  11210.634071  -4760.838045  22415.190367     85.538119
PR06  -7544.129803 -15949.754985  18420.783606    -25.718497
PR07 -19267.367830 -16303.455721   3912.450926     30.439928
PR08 -20866.577358  -7969.963807 -12294.377141    -62.950878
PR09   6171.139570 -14017.543826 -20404.947286     32.821624
PR10 -10398.877893  -6919.826289 -22264.419258    -78.696435
PR11 -22409.516393   4561.802680 -11282.831480     47.638190
PR12 -20731.455216  13105.707623   7076.202997    292.932991
PR13  -7318.593313  13987.000528  20019.019403    -16.720054
PR14  11574.567524   6335.112707  21838.800052     72.962571
PR15  22717.517056  -4638.002239  10642.794657     99.067680
PR17   5762.636485  18185.386477 -16939.366492    490.448967
PR18  10351.328898   1342.687994 -23252.927629    103.068521
PR19  10184.557852 -14945.824817 -17979.665789   -173.545393
PR20   3481.959450 -25290.222059    346.586445    -62.624667
PR21  -6201.389196 -17019.147208  17954.456792   -268.210631
PR22 -10401.474507   -507.644518  23276.884811   -156.511456
PR23  -8426.748865  20036.653459  13345.747726    -25.954800
PR24  -2623.854725  25360.079085   -989.541441     74.598116
EOF
